[{"OBJECT_NAME":"STARLINK-4261","OBJECT_ID":"2022-062AQ","EPOCH":"2026-03-09T06:16:41.616192","MEAN_MOTION":15.08834921,"ECCENTRICITY":0.0001356,"INCLINATION":53.2186,"RA_OF_ASC_NODE":26.0712,"ARG_OF_PERICENTER":90.3405,"MEAN_ANOMALY":269.7743,"EPHEMERIS_TYPE":0,"CLASSIFICATION_TYPE":"U","NORAD_CAT_ID":52868,"ELEMENT_SET_NO":999,"REV_AT_EPOCH":20586,"BSTAR":-3.9585537e-5,"MEAN_MOTION_DOT":-9.18e-6,"MEAN_MOTION_DDOT":0},{"OBJECT_NAME":"LEMUR-2-KREMPEL-BRO2","OBJECT_ID":"2025-061C","EPOCH":"2026-03-09T20:43:52.091904","MEAN_MOTION":15.13192951,"ECCENTRICITY":0.00179248,"INCLINATION":97.5616,"RA_OF_ASC_NODE":45.5365,"ARG_OF_PERICENTER":236.8576,"MEAN_ANOMALY":123.0936,"EPHEMERIS_TYPE":0,"CLASSIFICATION_TYPE":"U","NORAD_CAT_ID":63353,"ELEMENT_SET_NO":999,"REV_AT_EPOCH":5258,"BSTAR":0.00044346981,"MEAN_MOTION_DOT":7.837e-5,"MEAN_MOTION_DDOT":0}]
